STARLINK-1687           
1 46541U 20070K   23094.20774011 -.00016735  00000+0 -11075-2 0  9998
2 46541  53.0538 282.1972 0001089 101.5925 258.5186 15.06392145138438
STARLINK-1692           
1 46542U 20070L   23093.87785098  .00022566  00000+0  15279-2 0  9995
2 46542  53.0529 303.6765 0001030  85.8076 274.3031 15.06426403138109
STARLINK-1693           
1 46543U 20070M   23093.86307407  .00020811  00000+0  14096-2 0  9996
2 46543  53.0530 303.7440 0001153  82.0045 278.1075 15.06460170138103
STARLINK-1694           
1 46544U 20070N   23094.25704163 -.00020558  00000+0 -13651-2 0  9997
2 46544  53.0517 286.9791 0000731 111.0275 249.0792 15.06404518138386
STARLINK-1696           
1 46545U 20070P   23093.03746846  .00025658  00000+0  17343-2 0  9993
2 46545  53.0539 307.4529 0001093  84.8923 275.2190 15.06417911137976
STARLINK-1697           
1 46546U 20070Q   23094.01791044  .00025103  00000+0  16966-2 0  9998
2 46546  53.0521 303.0480 0001046  92.5990 267.5119 15.06434264137834
STARLINK-1698           
1 46547U 20070R   23093.84740053  .00024696  00000+0  16682-2 0  9994
2 46547  53.0519 303.8045 0001320  68.5551 291.5578 15.06462229138107
STARLINK-1699           
1 46548U 20070S   23093.85940998  .00029441  00000+0  19828-2 0  9994
2 46548  53.0523 303.7602 0000887  92.6903 267.4187 15.06481055138103
STARLINK-1700           
1 46549U 20070T   23093.88891966  .00008845  00000+0  61177-3 0  9998
2 46549  53.0520 303.6261 0000821 104.1076 256.0004 15.06411202138108
STARLINK-1701           
1 46550U 20070U   23093.87416753  .00025121  00000+0  16975-2 0  9997
2 46550  53.0542 303.6968 0001301  91.5041 268.6097 15.06441226138103
STARLINK-1664           
1 46553U 20070X   23094.19391967  .00012813  00000+0  87758-3 0  9997
2 46553  53.0531 272.2784 0001272 104.9682 255.1448 15.06397718138587
STARLINK-1671           
1 46554U 20070Y   23093.84789621  .00023696  00000+0  16033-2 0  9995
2 46554  53.0520 288.8169 0000957  74.8486 285.2609 15.06424164138312
STARLINK-1676           
1 46556U 20070AA  23093.84098390  .00025839  00000+0  17452-2 0  9990
2 46556  53.0539 303.8470 0001167  77.8568 282.2552 15.06442516138107
STARLINK-1679           
1 46557U 20070AB  23093.55303265  .00012640  00000+0  86559-3 0  9990
2 46557  53.0528 290.1348 0000734  57.8944 302.2116 15.06415280138278
STARLINK-1680           
1 46558U 20070AC  23094.22385613 -.00018645  00000+0 -12358-2 0  9991
2 46558  53.0534 287.1285 0001998 228.4552 131.6266 15.06407875138389
STARLINK-1681           
1 46559U 20070AD  23094.21135561 -.00004498  00000+0 -28314-3 0  9997
2 46559  53.0516 272.1698 0001109  91.7480 268.3635 15.06413232138581
STARLINK-1706           
1 46560U 20070AE  23094.33335648  .00205647  00000+0  17064-2 0  9996
2 46560  53.0458 254.6604 0003974 242.6865 290.9173 15.69041792138840
STARLINK-1709           
1 46561U 20070AF  23094.25607287 -.00006425  00000+0 -41274-3 0  9995
2 46561  53.0526 287.0111 0001400  52.2406 307.8710 15.06408891138380
STARLINK-1714           
1 46562U 20070AG  23094.25471863  .00020264  00000+0  13746-2 0  9992
2 46562  53.0511 281.9827 0001720  64.6655 295.4512 15.06420351138141
STARLINK-1730           
1 46563U 20070AH  23094.23721674  .00019794  00000+0  13447-2 0  9993
2 46563  53.0524 282.0639 0001648 255.2401 104.8405 15.06379950138451
STARLINK-1733           
1 46564U 20070AJ  23093.88706709  .00012998  00000+0  88969-3 0  9997
2 46564  53.0532 283.6418 0001130  82.7291 277.3826 15.06407218138394
STARLINK-1735           
1 46565U 20070AK  23093.79860280  .00016151  00000+0  10998-2 0  9994
2 46565  53.0541 284.0327 0001028  79.2053 280.9052 15.06429667138373
STARLINK-1740           
1 46566U 20070AL  23093.78386941  .00025951  00000+0  17562-2 0  9993
2 46566  53.0522 284.0984 0001700  58.4105 301.7049 15.06367309138378
STARLINK-1741           
1 46567U 20070AM  23094.21143524  .00004793  00000+0  34049-3 0  9992
2 46567  53.0523 282.1859 0002583  84.3146 275.8137 15.06399341138441
STARLINK-1747           
1 46569U 20070AP  23093.82809015  .00021555  00000+0  14603-2 0  9992
2 46569  53.0520 283.8982 0000805  69.0117 291.0958 15.06431858138089
STARLINK-1748           
1 46570U 20070AQ  23093.85463017  .00017661  00000+0  78511-3 0  9997
2 46570  53.0545 269.7490 0003241 169.4210 190.6855 15.21601940138584
STARLINK-1531           
1 46572U 20070AS  23093.86581332  .00020758  00000+0  14061-2 0  9991
2 46572  53.0528 303.7260 0001032  86.3848 273.7259 15.06460278138100
STARLINK-1650           
1 46573U 20070AT  23093.91667824  .00211027  00000+0  17339-2 0  9991
2 46573  53.0471 248.0402 0004222 276.3093 129.1245 15.69262261  1305
STARLINK-1660           
1 46574U 20070AU  23094.22754682 -.00001203  00000+0 -61918-4 0  9995
2 46574  53.0529 287.1105 0000729 101.8351 258.2719 15.06404607138372
STARLINK-1675           
1 46575U 20070AV  23094.15060709  .00010044  00000+0  69229-3 0  9991
2 46575  53.0513 262.4572 0003156  89.6949 270.4402 15.06396456138718
STARLINK-1677           
1 46576U 20070AW  23094.02113198  .00021923  00000+0  14841-2 0  9996
2 46576  53.0536 288.0348 0001162  78.0588 282.0531 15.06449267138345
STARLINK-1682           
1 46577U 20070AX  23094.24967260  .00017250  00000+0  11736-2 0  9996
2 46577  53.0536 287.0135 0002400  71.8971 288.2279 15.06416251138379
STARLINK-1683           
1 46578U 20070AY  23094.23076734  .00027606  00000+0  18622-2 0  9990
2 46578  53.0522 272.1455 0001037  62.1802 297.9292 15.06455143138281
STARLINK-1705           
1 46579U 20070AZ  23094.23493028  .00009602  00000+0  66268-3 0  9996
2 46579  53.0508 287.0700 0001844  85.7961 274.3239 15.06398867138354
STARLINK-1708           
1 46580U 20070BA  23093.94742084  .00022105  00000+0  14963-2 0  9991
2 46580  53.0519 288.3626 0001016  71.5727 288.5372 15.06448267138347
STARLINK-1712           
1 46581U 20070BB  23094.24460382  .00003428  00000+0  24891-3 0  9993
2 46581  53.0523 282.0329 0001254  91.1056 269.0077 15.06396190138445
STARLINK-1728           
1 46582U 20070BC  23094.22986127  .00015458  00000+0  10540-2 0  9993
2 46582  53.0516 282.0966 0002132  71.8907 288.2314 15.06411504138445
STARLINK-1729           
1 46583U 20070BD  23094.01424301  .00009327  00000+0  64389-3 0  9991
2 46583  53.0532 303.0663 0001002 150.4223 209.6822 15.06418651138140
STARLINK-1732           
1 46584U 20070BE  23093.83546815  .00023595  00000+0  15963-2 0  9992
2 46584  53.0517 283.8672 0000957  71.3757 288.7336 15.06431267138382
STARLINK-1736           
1 46585U 20070BF  23093.78660635  .00015599  00000+0  10630-2 0  9995
2 46585  53.0515 284.0804 0000871  83.6757 276.4331 15.06427812138371
STARLINK-1737           
1 46586U 20070BG  23093.24573140  .00025047  00000+0  16937-2 0  9996
2 46586  53.0531 286.5168 0000618  94.6896 265.4163 15.06415458138290
STARLINK-1746           
1 46588U 20070BJ  23094.22247754  .00012963  00000+0  88754-3 0  9996
2 46588  53.0522 282.1296 0000889  93.2866 266.8224 15.06398448138458
STARLINK-1749           
1 46589U 20070BK  23094.21510471 -.00003131  00000+0 -19135-3 0  9991
2 46589  53.0531 282.1688 0001135 239.6350 120.4526 15.06411053138440
STARLINK-1755           
1 46591U 20070BM  23093.54059120  .00012875  00000+0  88110-3 0  9990
2 46591  53.0523 285.1938 0000888  87.3450 272.7641 15.06422109137394
FLOCK 4V-18             
1 46597U 20061BG  23094.16793419  .00080946  00000+0  23549-2 0  9999
2 46597  97.3647 167.1725 0006420 172.7809 187.3528 15.35105033138141
FLOCK 4V-19             
1 46609U 20061BH  23094.19257591  .00091469  00000+0  26421-2 0  9996
2 46609  97.3522 166.1526 0003331 153.1708 206.9709 15.35296488137710
GAOFEN 13-01            
1 46610U 20071A   23093.88382740 -.00000362  00000+0  00000+0 0  9994
2 46610   0.0714  77.7677 0003749  25.6057 164.5690  1.00270250  9186
FLOCK 4V-20             
1 46612U 20061BJ  23093.68789867  .00018126  00000+0  68261-3 0  9997
2 46612  97.3669 165.5531 0006596 181.8958 178.2257 15.27134505137076
STARLINK-1715           
1 46671U 20073B   23093.76825086  .00029470  00000+0  19879-2 0  9992
2 46671  53.0552  14.4097 0001163  90.4964 269.6158 15.06421938135649
STARLINK-1716           
1 46672U 20073C   23093.18814329  .00045511  00000+0  30560-2 0  9991
2 46672  53.0552  11.7740 0001092  85.8788 274.2325 15.06383019135632
STARLINK-1717           
1 46673U 20073D   23093.83362256  .00032956  00000+0  22165-2 0  9992
2 46673  53.0576  24.0012 0001237 107.1818 252.9306 15.06475939135513
STARLINK-1718           
1 46674U 20073E   23094.20912459  .00041673  00000+0  27957-2 0  9991
2 46674  53.0555   7.1948 0000846  91.9075 268.2011 15.06457950136260
STARLINK-1720           
1 46675U 20073F   23094.13908436  .00062222  00000+0  41439-2 0  9998
2 46675  53.0551   7.5063 0000984 121.6534 238.4551 15.06538716136250
STARLINK-1766           
1 46677U 20073H   23094.13542981  .00041090  00000+0  27581-2 0  9991
2 46677  53.0550   7.5217 0000827  92.3662 267.7422 15.06444295136254
STARLINK-1773           
1 46679U 20073K   23093.80920813  .00031199  00000+0  21019-2 0  9999
2 46679  53.0563 348.9896 0000911  91.3571 268.7522 15.06439293136004
STARLINK-1774           
1 46680U 20073L   23094.20960247  .00034036  00000+0  22897-2 0  9999
2 46680  53.0553  22.1872 0001537 100.3300 259.7862 15.06450788136050
STARLINK-1775           
1 46681U 20073M   23094.18010130  .00032517  00000+0  21873-2 0  9999
2 46681  53.0551  22.3205 0001171 125.2188 234.8911 15.06477148136042
STARLINK-1776           
1 46682U 20073N   23093.80781943  .00018087  00000+0  12285-2 0  9998
2 46682  53.0542  23.9914 0001131 109.7858 250.3253 15.06446643135513
STARLINK-1780           
1 46684U 20073Q   23094.12803450  .00044915  00000+0  30117-2 0  9997
2 46684  53.0557   7.5546 0000749  88.1336 271.9739 15.06441294136252
